{
  "norad_id": 51958,
  "name": "STARLINK-3692",
  "history": [
    {
      "epoch": "2026-03-28T19:59:34.083168",
      "apogee_km": 476.08640014014145,
      "perigee_km": 474.33413631060193,
      "latitude_deg": -5.58891693290099,
      "longitude_deg": 175.7712035200093,
      "semi_major_axis_km": 6853.347268225371,
      "eccentricity": 0.00012784,
      "inclination_deg": 53.1599,
      "raan_deg": 284.6221,
      "arg_perigee_deg": 94.0569,
      "mean_anomaly_deg": 266.0577,
      "mean_motion_rev_day": 15.30201608
    }
  ]
}