{"fetched_at":"2026-03-30T06:02:59Z","count":15439,"tles":[{"name":"STARLINK-3692","line1":"1 51958U 22025C   26087.83303337  .00000363  00000+0  24380-4 0  9994","line2":"2 51958  53.1599 284.6221 0001278  94.0569 266.0577 15.30201608224106","category":"Starlink"}]}